{"type": "FeatureCollection", "features": [{"type": "Feature", "properties": {"norad_id": 2807, "name": "OPS 7218 (TRANSIT 16)", "group": "nnss", "lat": -59.245610893727125, "lon": -7.028818067017403, "alt_km": 1088.1070994088268, "timestamp": "2025-12-27T16:33:30.490950+00:00", "meta": {"OBJECT_NAME": "OPS 7218 (TRANSIT 16)", "OBJECT_ID": "1967-048A", "EPOCH": "2025-12-27T12:03:38.941056", "MEAN_MOTION": 13.50725307, "ECCENTRICITY": 0.0022106, "INCLINATION": 89.6735, "RA_OF_ASC_NODE": 353.5264, "ARG_OF_PERICENTER": 74.8289, "MEAN_ANOMALY": 35.4501, "EPHEMERIS_TYPE": 0, "CLASSIFICATION_TYPE": "U", "NORAD_CAT_ID": 2807, "ELEMENT_SET_NO": 999, "REV_AT_EPOCH": 88475, "BSTAR": 0.00016898, "MEAN_MOTION_DOT": 1.19e-06, "MEAN_MOTION_DDOT": 0}, "tle": {"line1": "1 02807U 67048A   25361.50253404  .00000119  00000+0  16898-3 0  9997", "line2": "2 02807  89.6735 353.5264 0022106  74.8289  35.4501 13.50725307884757"}}, "geometry": {"type": "Point", "coordinates": [-7.028818067017403, -59.245610893727125]}}, {"type": "Feature", "properties": {"norad_id": 2965, "name": "OPS 4947 (TRANSIT 17)", "group": "nnss", "lat": 27.900139473884472, "lon": -157.10360610506012, "alt_km": 1030.6961274556807, "timestamp": "2025-12-27T16:33:30.490973+00:00", "meta": {"OBJECT_NAME": "OPS 4947 (TRANSIT 17)", "OBJECT_ID": "1967-092A", "EPOCH": "2025-12-27T08:45:58.818240", "MEAN_MOTION": 13.5345744, "ECCENTRICITY": 0.0047306, "INCLINATION": 89.2485, "RA_OF_ASC_NODE": 23.3193, "ARG_OF_PERICENTER": 191.2504, "MEAN_ANOMALY": 180.0802, "EPHEMERIS_TYPE": 0, "CLASSIFICATION_TYPE": "U", "NORAD_CAT_ID": 2965, "ELEMENT_SET_NO": 999, "REV_AT_EPOCH": 87295, "BSTAR": 0.000196, "MEAN_MOTION_DOT": 1.44e-06, "MEAN_MOTION_DDOT": 0}, "tle": {"line1": "1 02965U 67092A   25361.36526410  .00000144  00000+0  19600-3 0  9997", "line2": "2 02965  89.2485  23.3193 0047306 191.2504 180.0802 13.53457440872959"}}, "geometry": {"type": "Point", "coordinates": [-157.10360610506012, 27.900139473884472]}}, {"type": "Feature", "properties": {"norad_id": 3133, "name": "OPS 7034 (TRANSIT 18)", "group": "nnss", "lat": -20.947021233322257, "lon": 93.6708316017686, "alt_km": 1056.4944736509242, "timestamp": "2025-12-27T16:33:30.490988+00:00", "meta": {"OBJECT_NAME": "OPS 7034 (TRANSIT 18)", "OBJECT_ID": "1968-012A", "EPOCH": "2025-12-27T07:16:51.955968", "MEAN_MOTION": 13.51569235, "ECCENTRICITY": 0.0075134, "INCLINATION": 90.0284, "RA_OF_ASC_NODE": 273.6806, "ARG_OF_PERICENTER": 127.3584, "MEAN_ANOMALY": 352.9174, "EPHEMERIS_TYPE": 0, "CLASSIFICATION_TYPE": "U", "NORAD_CAT_ID": 3133, "ELEMENT_SET_NO": 999, "REV_AT_EPOCH": 57115, "BSTAR": 0.00020808, "MEAN_MOTION_DOT": 1.48e-06, "MEAN_MOTION_DDOT": 0}, "tle": {"line1": "1 03133U 68012A   25361.30337912  .00000148  00000+0  20808-3 0  9995", "line2": "2 03133  90.0284 273.6806 0075134 127.3584 352.9174 13.51569235571157"}}, "geometry": {"type": "Point", "coordinates": [93.6708316017686, -20.947021233322257]}}, {"type": "Feature", "properties": {"norad_id": 4507, "name": "NNSS 19 (TRANSIT 19)", "group": "nnss", "lat": 23.875067166659328, "lon": 54.54584264323223, "alt_km": 1072.6567516939176, "timestamp": "2025-12-27T16:33:30.491000+00:00", "meta": {"OBJECT_NAME": "NNSS 19 (TRANSIT 19)", "OBJECT_ID": "1970-067A", "EPOCH": "2025-12-27T08:39:42.114240", "MEAN_MOTION": 13.51318099, "ECCENTRICITY": 0.0170243, "INCLINATION": 90.0045, "RA_OF_ASC_NODE": 234.5437, "ARG_OF_PERICENTER": 250.5731, "MEAN_ANOMALY": 107.6955, "EPHEMERIS_TYPE": 0, "CLASSIFICATION_TYPE": "U", "NORAD_CAT_ID": 4507, "ELEMENT_SET_NO": 999, "REV_AT_EPOCH": 72419, "BSTAR": 0.00012626, "MEAN_MOTION_DOT": 9.8e-07, "MEAN_MOTION_DDOT": 0}, "tle": {"line1": "1 04507U 70067A   25361.36090410  .00000098  00000+0  12626-3 0  9992", "line2": "2 04507  90.0045 234.5437 0170243 250.5731 107.6955 13.51318099724190"}}, "geometry": {"type": "Point", "coordinates": [54.54584264323223, 23.875067166659328]}}, {"type": "Feature", "properties": {"norad_id": 6909, "name": "NNSS 20 (TRANSIT 20)", "group": "nnss", "lat": -51.60245272350858, "lon": 75.01225294969409, "alt_km": 1110.9202945248644, "timestamp": "2025-12-27T16:33:30.491012+00:00", "meta": {"OBJECT_NAME": "NNSS 20 (TRANSIT 20)", "OBJECT_ID": "1973-081A", "EPOCH": "2025-12-27T06:40:47.864064", "MEAN_MOTION": 13.71442091, "ECCENTRICITY": 0.0155984, "INCLINATION": 89.8558, "RA_OF_ASC_NODE": 254.8364, "ARG_OF_PERICENTER": 35.2081, "MEAN_ANOMALY": 325.9268, "EPHEMERIS_TYPE": 0, "CLASSIFICATION_TYPE": "U", "NORAD_CAT_ID": 6909, "ELEMENT_SET_NO": 999, "REV_AT_EPOCH": 80560, "BSTAR": 0.00028554, "MEAN_MOTION_DOT": 2.91e-06, "MEAN_MOTION_DDOT": 0}, "tle": {"line1": "1 06909U 73081A   25361.27833176  .00000291  00000+0  28554-3 0  9995", "line2": "2 06909  89.8558 254.8364 0155984  35.2081 325.9268 13.71442091805608"}}, "geometry": {"type": "Point", "coordinates": [75.01225294969409, -51.60245272350858]}}, {"type": "Feature", "properties": {"norad_id": 10457, "name": "TRANSAT", "group": "nnss", "lat": 35.13834144440136, "lon": 78.31562075851181, "alt_km": 1081.221915657642, "timestamp": "2025-12-27T16:33:30.491024+00:00", "meta": {"OBJECT_NAME": "TRANSAT", "OBJECT_ID": "1977-106A", "EPOCH": "2025-12-27T04:12:20.051712", "MEAN_MOTION": 13.48945884, "ECCENTRICITY": 0.00266749, "INCLINATION": 89.6473, "RA_OF_ASC_NODE": 78.0855, "ARG_OF_PERICENTER": 148.7401, "MEAN_ANOMALY": 268.7469, "EPHEMERIS_TYPE": 0, "CLASSIFICATION_TYPE": "U", "NORAD_CAT_ID": 10457, "ELEMENT_SET_NO": 999, "REV_AT_EPOCH": 36938, "BSTAR": 0.00012462096, "MEAN_MOTION_DOT": 8.9e-07, "MEAN_MOTION_DDOT": 0}, "tle": {"line1": "1 10457U 77106A   25361.17523208  .00000089  00000+0  12462-3 0  9997", "line2": "2 10457  89.6473  78.0855 0026674 148.7401 268.7469 13.48945884369384"}}, "geometry": {"type": "Point", "coordinates": [78.31562075851181, 35.13834144440136]}}, {"type": "Feature", "properties": {"norad_id": 12458, "name": "NOVA 1", "group": "nnss", "lat": -2.688798038275595, "lon": 91.16680398630923, "alt_km": 1171.3549617332255, "timestamp": "2025-12-27T16:33:30.491034+00:00", "meta": {"OBJECT_NAME": "NOVA 1", "OBJECT_ID": "1981-044A", "EPOCH": "2025-12-27T07:49:23.642976", "MEAN_MOTION": 13.23280201, "ECCENTRICITY": 0.0015642, "INCLINATION": 89.8525, "RA_OF_ASC_NODE": 91.1789, "ARG_OF_PERICENTER": 68.0967, "MEAN_ANOMALY": 356.6259, "EPHEMERIS_TYPE": 0, "CLASSIFICATION_TYPE": "U", "NORAD_CAT_ID": 12458, "ELEMENT_SET_NO": 999, "REV_AT_EPOCH": 15379, "BSTAR": 0.00012527, "MEAN_MOTION_DOT": 6.2e-07, "MEAN_MOTION_DDOT": 0}, "tle": {"line1": "1 12458U 81044A   25361.32596809  .00000062  00000+0  12527-3 0  9993", "line2": "2 12458  89.8525  91.1789 0015642  68.0967 356.6259 13.23280201153791"}}, "geometry": {"type": "Point", "coordinates": [91.16680398630923, -2.688798038275595]}}, {"type": "Feature", "properties": {"norad_id": 15362, "name": "NOVA 3", "group": "nnss", "lat": -37.480298350728646, "lon": -99.38291795888361, "alt_km": 1172.2402909053417, "timestamp": "2025-12-27T16:33:30.491045+00:00", "meta": {"OBJECT_NAME": "NOVA 3", "OBJECT_ID": "1984-110A", "EPOCH": "2025-12-27T11:53:08.848320", "MEAN_MOTION": 13.23046531, "ECCENTRICITY": 0.0029823, "INCLINATION": 90.1216, "RA_OF_ASC_NODE": 80.7081, "ARG_OF_PERICENTER": 289.2938, "MEAN_ANOMALY": 81.6259, "EPHEMERIS_TYPE": 0, "CLASSIFICATION_TYPE": "U", "NORAD_CAT_ID": 15362, "ELEMENT_SET_NO": 999, "REV_AT_EPOCH": 98894, "BSTAR": 0.00019755, "MEAN_MOTION_DOT": 9.1e-07, "MEAN_MOTION_DDOT": 0}, "tle": {"line1": "1 15362U 84110A   25361.49524130  .00000091  00000+0  19755-3 0  9995", "line2": "2 15362  90.1216  80.7081 0029823 289.2938  81.6259 13.23046531988944"}}, "geometry": {"type": "Point", "coordinates": [-99.38291795888361, -37.480298350728646]}}, {"type": "Feature", "properties": {"norad_id": 15935, "name": "OSCAR 30", "group": "nnss", "lat": -82.60786444287686, "lon": 101.36642916301695, "alt_km": 1201.9706116209618, "timestamp": "2025-12-27T16:33:30.491055+00:00", "meta": {"OBJECT_NAME": "OSCAR 30", "OBJECT_ID": "1985-066A", "EPOCH": "2025-12-27T06:26:13.450272", "MEAN_MOTION": 13.36080793, "ECCENTRICITY": 0.0168706, "INCLINATION": 90.1653, "RA_OF_ASC_NODE": 100.0846, "ARG_OF_PERICENTER": 43.2828, "MEAN_ANOMALY": 8.4639, "EPHEMERIS_TYPE": 0, "CLASSIFICATION_TYPE": "U", "NORAD_CAT_ID": 15935, "ELEMENT_SET_NO": 999, "REV_AT_EPOCH": 96647, "BSTAR": 0.00016691, "MEAN_MOTION_DOT": 1.02e-06, "MEAN_MOTION_DDOT": 0}, "tle": {"line1": "1 15935U 85066A   25361.26821123  .00000102  00000+0  16691-3 0  9998", "line2": "2 15935  90.1653 100.0846 0168706  43.2828   8.4639 13.36080793966475"}}, "geometry": {"type": "Point", "coordinates": [101.36642916301695, -82.60786444287686]}}, {"type": "Feature", "properties": {"norad_id": 15936, "name": "OSCAR 24", "group": "nnss", "lat": -15.166842511716021, "lon": 92.61838195616754, "alt_km": 1070.7317821683546, "timestamp": "2025-12-27T16:33:30.491066+00:00", "meta": {"OBJECT_NAME": "OSCAR 24", "OBJECT_ID": "1985-066B", "EPOCH": "2025-12-27T07:58:31.321344", "MEAN_MOTION": 13.35938011, "ECCENTRICITY": 0.016989, "INCLINATION": 90.1791, "RA_OF_ASC_NODE": 92.5635, "ARG_OF_PERICENTER": 49.5567, "MEAN_ANOMALY": 18.1592, "EPHEMERIS_TYPE": 0, "CLASSIFICATION_TYPE": "U", "NORAD_CAT_ID": 15936, "ELEMENT_SET_NO": 999, "REV_AT_EPOCH": 96838, "BSTAR": 0.00014914, "MEAN_MOTION_DOT": 9.2e-07, "MEAN_MOTION_DDOT": 0}, "tle": {"line1": "1 15936U 85066B   25361.33230696  .00000092  00000+0  14914-3 0  9990", "line2": "2 15936  90.1791  92.5635 0169890  49.5567  18.1592 13.35938011968386"}}, "geometry": {"type": "Point", "coordinates": [92.61838195616754, -15.166842511716021]}}]}